OBJECT B                
1 51825U 22019B   26048.96498375  .00051244  00000+0  65332-3 0  9993
2 51825  97.3573 135.5980 0007423 200.4092 159.6869 15.59126485221095
